GLOBALSTAR M094 [+]     
1 39074U 13005C   24098.26871684 -.00000109  00000+0 -30539-4 0  9992
2 39074  51.9960  69.3571 0000601  55.4540 304.6384 12.62264200517349
GLOBALSTAR M096 [+]     
1 39075U 13005D   24098.36099633 -.00000082  00000+0  12189-3 0  9999
2 39075  52.0054 117.2518 0000477  49.9712 310.1197 12.62264225516609
GLOBALSTAR M078 [+]     
1 39076U 13005E   24097.54333214 -.00000183  00000+0 -44200-3 0  9997
2 39076  51.9867 204.8489 0000440 294.8618  65.2202 12.62260329514778
GLOBALSTAR M095 [+]     
1 39077U 13005F   24097.56898579 -.00000101  00000+0  13579-4 0  9995
2 39077  51.9791 202.1792 0000369  24.0720 336.0164 12.62276586514633
GLOBALSTAR M087 [+]     
1 52888U 22064A   24097.97256986 -.00000109  00000+0  36089-4 0  9999
2 52888  51.9747  96.7008 0009354 181.4973 178.5901 13.37569243 87997
